[
    {
        "Altitude(m)": 553719.6546891233,
        "Argument of Periapsis(deg)": 0.013245982221427002,
        "Eccentricity": 0.0,
        "Inclination(deg)": 53.0,
        "Latitude(deg)": 18.86233959662299,
        "Longitude(deg)": -36.74163383901475,
        "Mean Anomaly(deg)": 23.819585735155187,
        "RAAN(deg)": 49.98028673705604,
        "Satellite Name": "Starlink Shell 1 220",
        "Satellite Number": 220,
        "Semi-Major Axis(m)": 6931778.249405717,
        "Time(s)": 380
    },
    {
        "Altitude(m)": 553755.0520853278,
        "Argument of Periapsis(deg)": 0.013594560700938237,
        "Eccentricity": 0.0,
        "Inclination(deg)": 53.0,
        "Latitude(deg)": 19.34868153138685,
        "Longitude(deg)": -36.361227687078774,
        "Mean Anomaly(deg)": 24.446416938711895,
        "RAAN(deg)": 49.979767966978564,
        "Satellite Name": "Starlink Shell 1 220",
        "Satellite Number": 220,
        "Semi-Major Axis(m)": 6931778.249405717,
        "Time(s)": 390
    },
    {
        "Altitude(m)": 553792.5863546177,
        "Argument of Periapsis(deg)": 0.013943139180449475,
        "Eccentricity": 0.0,
        "Inclination(deg)": 53.0,
        "Latitude(deg)": 19.834018279206834,
        "Longitude(deg)": -35.978318317667764,
        "Mean Anomaly(deg)": 25.073248142268593,
        "RAAN(deg)": 49.97924919690109,
        "Satellite Name": "Starlink Shell 1 220",
        "Satellite Number": 220,
        "Semi-Major Axis(m)": 6931778.249405717,
        "Time(s)": 400
    },
    {
        "Altitude(m)": 553832.2178630453,
        "Argument of Periapsis(deg)": 0.014291717659960712,
        "Eccentricity": 0.0,
        "Inclination(deg)": 53.0,
        "Latitude(deg)": 20.31831658702287,
        "Longitude(deg)": -35.59282742059531,
        "Mean Anomaly(deg)": 25.70007934582532,
        "RAAN(deg)": 49.978730426823624,
        "Satellite Name": "Starlink Shell 1 220",
        "Satellite Number": 220,
        "Semi-Major Axis(m)": 6931778.249405717,
        "Time(s)": 410
    },
    {
        "Altitude(m)": 553873.9060773881,
        "Argument of Periapsis(deg)": 0.014640296139471948,
        "Eccentricity": 0.0,
        "Inclination(deg)": 53.0,
        "Latitude(deg)": 20.801542608188626,
        "Longitude(deg)": -35.20467614292483,
        "Mean Anomaly(deg)": 26.326910549382028,
        "RAAN(deg)": 49.97821165674614,
        "Satellite Name": "Starlink Shell 1 220",
        "Satellite Number": 220,
        "Semi-Major Axis(m)": 6931778.249405717,
        "Time(s)": 420
    },
    {
        "Altitude(m)": 553917.6095877308,
        "Argument of Periapsis(deg)": 0.014988874618983185,
        "Eccentricity": 0.0,
        "Inclination(deg)": 53.0,
        "Latitude(deg)": 21.283661881110483,
        "Longitude(deg)": -34.813784560060746,
        "Mean Anomaly(deg)": 26.953741752938758,
        "RAAN(deg)": 49.97769288666867,
        "Satellite Name": "Starlink Shell 1 220",
        "Satellite Number": 220,
        "Semi-Major Axis(m)": 6931778.249405717,
        "Time(s)": 430
    },
    {
        "Altitude(m)": 553963.2861304252,
        "Argument of Periapsis(deg)": 0.015337453098494424,
        "Eccentricity": 0.0,
        "Inclination(deg)": 53.0,
        "Latitude(deg)": 21.764639307402085,
        "Longitude(deg)": -34.420071147369484,
        "Mean Anomaly(deg)": 27.58057295649546,
        "RAAN(deg)": 49.97717411659119,
        "Satellite Name": "Starlink Shell 1 220",
        "Satellite Number": 220,
        "Semi-Major Axis(m)": 6931778.249405717,
        "Time(s)": 440
    },
    {
        "Altitude(m)": 554010.8926114575,
        "Argument of Periapsis(deg)": 0.01568603157800566,
        "Eccentricity": 0.0,
        "Inclination(deg)": 53.0,
        "Latitude(deg)": 22.24443912954344,
        "Longitude(deg)": -34.02345376527729,
        "Mean Anomaly(deg)": 28.207404160052167,
        "RAAN(deg)": 49.97665534651372,
        "Satellite Name": "Starlink Shell 1 220",
        "Satellite Number": 220,
        "Semi-Major Axis(m)": 6931778.249405717,
        "Time(s)": 450
    },
    {
        "Altitude(m)": 554060.3851302263,
        "Argument of Periapsis(deg)": 0.0160346100575169,
        "Eccentricity": 0.0,
        "Inclination(deg)": 53.0,
        "Latitude(deg)": 22.72302490804006,
        "Longitude(deg)": -33.62384913218287,
        "Mean Anomaly(deg)": 28.834235363608897,
        "RAAN(deg)": 49.976136576436254,
        "Satellite Name": "Starlink Shell 1 220",
        "Satellite Number": 220,
        "Semi-Major Axis(m)": 6931778.249405717,
        "Time(s)": 460
    },
    {
        "Altitude(m)": 554111.7190036282,
        "Argument of Periapsis(deg)": 0.016383188537028134,
        "Eccentricity": 0.0,
        "Inclination(deg)": 53.0,
        "Latitude(deg)": 23.20035949807301,
        "Longitude(deg)": -33.22117229814717,
        "Mean Anomaly(deg)": 29.46106656716561,
        "RAAN(deg)": 49.97561780635878,
        "Satellite Name": "Starlink Shell 1 220",
        "Satellite Number": 220,
        "Semi-Major Axis(m)": 6931778.249405717,
        "Time(s)": 470
    },
    {
        "Altitude(m)": 554164.848790556,
        "Argument of Periapsis(deg)": 0.01673176701653937,
        "Eccentricity": 0.0,
        "Inclination(deg)": 53.0,
        "Latitude(deg)": 23.676405025630633,
        "Longitude(deg)": -32.81533763232926,
        "Mean Anomaly(deg)": 30.087897770722332,
        "RAAN(deg)": 49.97509903628131,
        "Satellite Name": "Starlink Shell 1 220",
        "Satellite Number": 220,
        "Semi-Major Axis(m)": 6931778.249405717,
        "Time(s)": 480
    },
    {
        "Altitude(m)": 554219.7283167108,
        "Argument of Periapsis(deg)": 0.017080345496050607,
        "Eccentricity": 0.0,
        "Inclination(deg)": 53.0,
        "Latitude(deg)": 24.151122863120666,
        "Longitude(deg)": -32.40625829852907,
        "Mean Anomaly(deg)": 30.714728974279033,
        "RAAN(deg)": 49.97458026620384,
        "Satellite Name": "Starlink Shell 1 220",
        "Satellite Number": 220,
        "Semi-Major Axis(m)": 6931778.249405717,
        "Time(s)": 490
    },
    {
        "Altitude(m)": 554276.3106997616,
        "Argument of Periapsis(deg)": 0.017428923975561842,
        "Eccentricity": 0.0,
        "Inclination(deg)": 53.0,
        "Latitude(deg)": 24.624473604456323,
        "Longitude(deg)": -31.99384573182354,
        "Mean Anomaly(deg)": 31.341560177835753,
        "RAAN(deg)": 49.97406149612635,
        "Satellite Name": "Starlink Shell 1 220",
        "Satellite Number": 220,
        "Semi-Major Axis(m)": 6931778.249405717,
        "Time(s)": 500
    },
    {
        "Altitude(m)": 554334.5483747975,
        "Argument of Periapsis(deg)": 0.01777750245507308,
        "Eccentricity": 0.0,
        "Inclination(deg)": 53.0,
        "Latitude(deg)": 25.096417039610618,
        "Longitude(deg)": -31.578010629290983,
        "Mean Anomaly(deg)": 31.968391381392472,
        "RAAN(deg)": 49.97354272604889,
        "Satellite Name": "Starlink Shell 1 220",
        "Satellite Number": 220,
        "Semi-Major Axis(m)": 6931778.249405717,
        "Time(s)": 510
    },
    {
        "Altitude(m)": 554394.3931200973,
        "Argument of Periapsis(deg)": 0.018126080934584315,
        "Eccentricity": 0.0,
        "Inclination(deg)": 53.0,
        "Latitude(deg)": 25.566912128641604,
        "Longitude(deg)": -31.15866242921255,
        "Mean Anomaly(deg)": 32.595222584949184,
        "RAAN(deg)": 49.973023955971414,
        "Satellite Name": "Starlink Shell 1 220",
        "Satellite Number": 220,
        "Semi-Major Axis(m)": 6931778.249405717,
        "Time(s)": 520
    },
    {
        "Altitude(m)": 554455.7960832008,
        "Argument of Periapsis(deg)": 0.018474659414095554,
        "Eccentricity": 0.0,
        "Inclination(deg)": 53.0,
        "Latitude(deg)": 26.035916975186257,
        "Longitude(deg)": -30.735708791765067,
        "Mean Anomaly(deg)": 33.22205378850591,
        "RAAN(deg)": 49.97250518589394,
        "Satellite Name": "Starlink Shell 1 220",
        "Satellite Number": 220,
        "Semi-Major Axis(m)": 6931778.249405717,
        "Time(s)": 530
    },
    {
        "Altitude(m)": 554518.7078072184,
        "Argument of Periapsis(deg)": 0.018823237893606792,
        "Eccentricity": 0.0,
        "Inclination(deg)": 53.0,
        "Latitude(deg)": 26.503388799422062,
        "Longitude(deg)": -30.309056594232725,
        "Mean Anomaly(deg)": 33.84888499206261,
        "RAAN(deg)": 49.971986415816474,
        "Satellite Name": "Starlink Shell 1 220",
        "Satellite Number": 220,
        "Semi-Major Axis(m)": 6931778.249405717,
        "Time(s)": 540
    },
    {
        "Altitude(m)": 554583.0782574485,
        "Argument of Periapsis(deg)": 0.019171816373118027,
        "Eccentricity": 0.0,
        "Inclination(deg)": 53.0,
        "Latitude(deg)": 26.969283910504252,
        "Longitude(deg)": -29.878611415157454,
        "Mean Anomaly(deg)": 34.475716195619334,
        "RAAN(deg)": 49.971467645739,
        "Satellite Name": "Starlink Shell 1 220",
        "Satellite Number": 220,
        "Semi-Major Axis(m)": 6931778.249405717,
        "Time(s)": 550
    },
    {
        "Altitude(m)": 554648.856848191,
        "Argument of Periapsis(deg)": 0.019520394852629266,
        "Eccentricity": 0.0,
        "Inclination(deg)": 53.0,
        "Latitude(deg)": 27.433557678482284,
        "Longitude(deg)": -29.444277020478278,
        "Mean Anomaly(deg)": 35.10254739917605,
        "RAAN(deg)": 49.97094887566152,
        "Satellite Name": "Starlink Shell 1 220",
        "Satellite Number": 220,
        "Semi-Major Axis(m)": 6931778.249405717,
        "Time(s)": 560
    }
]